start=new Date('2023-06-19T00:00:00.000Z').valueOf();
sats=[{"PERIOD":"95.438","BSTAR":"0.00002258400000","TLE_LINE1":"1 52837U 22062H   23169.75430947  .00000072  00000-0  22584-4 0  9991","DECAY_DATE":null,"CLASSIFICATION_TYPE":"U","REV_AT_EPOCH":"5558","GP_ID":"234247522","EPOCH":"2023-06-18T18:06:12.338208","NORAD_CAT_ID":"52837","SITE":"AFETR","CENTER_NAME":"EARTH","REF_FRAME":"TEME","COUNTRY_CODE":"US","OBJECT_TYPE":"PAYLOAD","MEAN_ANOMALY":"278.3874","RA_OF_ASC_NODE":"180.5579","INCLINATION":"53.2165","TLE_LINE2":"2 52837  53.2165 180.5579 0000962  81.7227 278.3874 15.08839769 55586","ARG_OF_PERICENTER":"81.7227","MEAN_MOTION":"15.08839769","MEAN_MOTION_DOT":"0.00000072","OBJECT_ID":"2022-062H","EPHEMERIS_TYPE":"0","FILE":"3936745","RCS_SIZE":"LARGE","LAUNCH_DATE":"2022-06-17","PERIAPSIS":"539.081","ECCENTRICITY":"0.00009620","SEMIMAJOR_AXIS":"6917.881","MEAN_ELEMENT_THEORY":"SGP4","TIME_SYSTEM":"UTC","APOAPSIS":"540.412","MEAN_MOTION_DDOT":"0.0000000000000","ELEMENT_SET_NO":"999","OBJECT_NAME":"STARLINK-4036"},{"EPHEMERIS_TYPE":"0","OBJECT_ID":"2022-062J","RCS_SIZE":"LARGE","FILE":"3936745","MEAN_MOTION":"15.08852033","MEAN_MOTION_DOT":"0.00000897","INCLINATION":"53.2144","ARG_OF_PERICENTER":"77.1888","TLE_LINE2":"2 52838  53.2144 180.5337 0001095  77.1888 282.9226 15.08852033 55587","REF_FRAME":"TEME","CENTER_NAME":"EARTH","OBJECT_TYPE":"PAYLOAD","MEAN_ANOMALY":"282.9226","RA_OF_ASC_NODE":"180.5337","COUNTRY_CODE":"US","SITE":"AFETR","NORAD_CAT_ID":"52838","EPOCH":"2023-06-18T18:11:30.079392","GP_ID":"234247266","CLASSIFICATION_TYPE":"U","DECAY_DATE":null,"REV_AT_EPOCH":"5558","PERIOD":"95.437","TLE_LINE1":"1 52838U 22062J   23169.75798703  .00000897  00000-0  74426-4 0  9996","BSTAR":"0.00007442600000","ELEMENT_SET_NO":"999","MEAN_MOTION_DDOT":"0.0000000000000","OBJECT_NAME":"STARLINK-4092","APOAPSIS":"540.466","TIME_SYSTEM":"UTC","SEMIMAJOR_AXIS":"6917.844","MEAN_ELEMENT_THEORY":"SGP4","ECCENTRICITY":"0.00010950","LAUNCH_DATE":"2022-06-17","PERIAPSIS":"538.951"},{"CENTER_NAME":"EARTH","REF_FRAME":"TEME","COUNTRY_CODE":"US","MEAN_ANOMALY":"278.5681","OBJECT_TYPE":"PAYLOAD","RA_OF_ASC_NODE":"180.5907","INCLINATION":"53.2157","ARG_OF_PERICENTER":"81.5443","TLE_LINE2":"2 52839  53.2157 180.5907 0001160  81.5443 278.5681 15.08837597 55588","MEAN_MOTION":"15.08837597","MEAN_MOTION_DOT":"0.00000035","EPHEMERIS_TYPE":"0","OBJECT_ID":"2022-062K","FILE":"3936745","RCS_SIZE":"LARGE","PERIOD":"95.438","BSTAR":"0.00002025500000","TLE_LINE1":"1 52839U 22062K   23169.74695244  .00000035  00000-0  20255-4 0  9997","CLASSIFICATION_TYPE":"U","DECAY_DATE":null,"REV_AT_EPOCH":"5558","GP_ID":"234246523","EPOCH":"2023-06-18T17:55:36.690816","NORAD_CAT_ID":"52839","SITE":"AFETR","TIME_SYSTEM":"UTC","APOAPSIS":"540.555","ELEMENT_SET_NO":"999","MEAN_MOTION_DDOT":"0.0000000000000","OBJECT_NAME":"STARLINK-4048","LAUNCH_DATE":"2022-06-17","PERIAPSIS":"538.950","ECCENTRICITY":"0.00011600","SEMIMAJOR_AXIS":"6917.888","MEAN_ELEMENT_THEORY":"SGP4"},{"GP_ID":"234246274","EPOCH":"2023-06-18T18:00:54.722304","NORAD_CAT_ID":"52840","SITE":"AFETR","PERIOD":"95.438","BSTAR":"0.00001429400000","TLE_LINE1":"1 52840U 22062L   23169.75063336 -.00000060  00000-0  14294-4 0  9996","DECAY_DATE":null,"CLASSIFICATION_TYPE":"U","REV_AT_EPOCH":"5558","MEAN_MOTION":"15.08836359","MEAN_MOTION_DOT":"-0.00000060","OBJECT_ID":"2022-062L","EPHEMERIS_TYPE":"0","FILE":"3936745","RCS_SIZE":"LARGE","CENTER_NAME":"EARTH","REF_FRAME":"TEME","COUNTRY_CODE":"US","RA_OF_ASC_NODE":"180.5743","OBJECT_TYPE":"PAYLOAD","MEAN_ANOMALY":"273.5876","INCLINATION":"53.2166","ARG_OF_PERICENTER":"86.5249","TLE_LINE2":"2 52840  53.2166 180.5743 0001157  86.5249 273.5876 15.08836359 55589","SEMIMAJOR_AXIS":"6917.892","MEAN_ELEMENT_THEORY":"SGP4","PERIAPSIS":"538.956","LAUNCH_DATE":"2022-06-17","ECCENTRICITY":"0.00011570","MEAN_MOTION_DDOT":"0.0000000000000","ELEMENT_SET_NO":"999","OBJECT_NAME":"STARLINK-4049","TIME_SYSTEM":"UTC","APOAPSIS":"540.557"},{"TIME_SYSTEM":"UTC","APOAPSIS":"540.521","MEAN_MOTION_DDOT":"0.0000000000000","ELEMENT_SET_NO":"999","OBJECT_NAME":"STARLINK-4065","LAUNCH_DATE":"2022-06-17","PERIAPSIS":"539.008","ECCENTRICITY":"0.00010930","SEMIMAJOR_AXIS":"6917.899","MEAN_ELEMENT_THEORY":"SGP4","INCLINATION":"53.2157","ARG_OF_PERICENTER":"73.9864","TLE_LINE2":"2 52841  53.2157 180.6379 0001093  73.9864 286.1249 15.08833764 55589","CENTER_NAME":"EARTH","REF_FRAME":"TEME","COUNTRY_CODE":"US","OBJECT_TYPE":"PAYLOAD","MEAN_ANOMALY":"286.1249","RA_OF_ASC_NODE":"180.6379","EPHEMERIS_TYPE":"0","OBJECT_ID":"2022-062M","FILE":"3936745","RCS_SIZE":"LARGE","MEAN_MOTION":"15.08833764","MEAN_MOTION_DOT":"-0.00000265","DECAY_DATE":null,"CLASSIFICATION_TYPE":"U","REV_AT_EPOCH":"5558","PERIOD":"95.438","BSTAR":"0.00000145280000","TLE_LINE1":"1 52841U 22062M   23169.73591456 -.00000265  00000-0  14528-5 0  9992","SITE":"AFETR","EPOCH":"2023-06-18T17:39:43.017984","GP_ID":"234247023","NORAD_CAT_ID":"52841"},{"TIME_SYSTEM":"UTC","APOAPSIS":"540.430","OBJECT_NAME":"STARLINK-4046","MEAN_MOTION_DDOT":"0.0000000000000","ELEMENT_SET_NO":"999","PERIAPSIS":"539.075","LAUNCH_DATE":"2022-06-17","ECCENTRICITY":"0.00009790","MEAN_ELEMENT_THEORY":"SGP4","SEMIMAJOR_AXIS":"6917.888","COUNTRY_CODE":"US","OBJECT_TYPE":"PAYLOAD","MEAN_ANOMALY":"278.1168","RA_OF_ASC_NODE":"180.5495","CENTER_NAME":"EARTH","REF_FRAME":"TEME","ARG_OF_PERICENTER":"81.9935","TLE_LINE2":"2 52842  53.2162 180.5495 0000979  81.9935 278.1168 15.08837645 55587","INCLINATION":"53.2162","MEAN_MOTION_DOT":"-0.00000424","MEAN_MOTION":"15.08837645","FILE":"3936745","RCS_SIZE":"LARGE","OBJECT_ID":"2022-062N","EPHEMERIS_TYPE":"0","BSTAR":"-0.00000855270000","TLE_LINE1":"1 52842U 22062N   23169.75894916 -.00000424  00000-0 -85527-5 0  9997","PERIOD":"95.438","REV_AT_EPOCH":"5558","DECAY_DATE":null,"CLASSIFICATION_TYPE":"U","EPOCH":"2023-06-18T18:12:53.207424","GP_ID":"234247766","NORAD_CAT_ID":"52842","SITE":"AFETR"},{"MEAN_ANOMALY":"285.2682","OBJECT_TYPE":"PAYLOAD","RA_OF_ASC_NODE":"180.6755","COUNTRY_CODE":"US","REF_FRAME":"TEME","CENTER_NAME":"EARTH","TLE_LINE2":"2 52843  53.2161 180.6755 0000769  74.8395 285.2682 15.08835600 55584","ARG_OF_PERICENTER":"74.8395","INCLINATION":"53.2161","MEAN_MOTION_DOT":"-0.00000205","MEAN_MOTION":"15.08835600","RCS_SIZE":"LARGE","FILE":"3936745","OBJECT_ID":"2022-062P","EPHEMERIS_TYPE":"0","TLE_LINE1":"1 52843U 22062P   23169.72854970 -.00000205  00000-0  51886-5 0  9998","BSTAR":"0.00000518860000","PERIOD":"95.438","REV_AT_EPOCH":"5558","DECAY_DATE":null,"CLASSIFICATION_TYPE":"U","NORAD_CAT_ID":"52843","GP_ID":"234246024","EPOCH":"2023-06-18T17:29:06.694080","SITE":"AFETR","APOAPSIS":"540.291","TIME_SYSTEM":"UTC","OBJECT_NAME":"STARLINK-4188","ELEMENT_SET_NO":"999","MEAN_MOTION_DDOT":"0.0000000000000","ECCENTRICITY":"0.00007690","LAUNCH_DATE":"2022-06-17","PERIAPSIS":"539.227","MEAN_ELEMENT_THEORY":"SGP4","SEMIMAJOR_AXIS":"6917.894"},{"ELEMENT_SET_NO":"999","MEAN_MOTION_DDOT":"0.0000000000000","OBJECT_NAME":"STARLINK-4208","APOAPSIS":"540.342","TIME_SYSTEM":"UTC","SEMIMAJOR_AXIS":"6917.895","MEAN_ELEMENT_THEORY":"SGP4","ECCENTRICITY":"0.00008410","LAUNCH_DATE":"2022-06-17","PERIAPSIS":"539.179","MEAN_MOTION":"15.08835079","MEAN_MOTION_DOT":"-0.00000208","OBJECT_ID":"2022-062Q","EPHEMERIS_TYPE":"0","RCS_SIZE":"LARGE","FILE":"3936745","REF_FRAME":"TEME","CENTER_NAME":"EARTH","OBJECT_TYPE":"PAYLOAD","MEAN_ANOMALY":"280.6842","RA_OF_ASC_NODE":"180.6055","COUNTRY_CODE":"US","INCLINATION":"53.2154","ARG_OF_PERICENTER":"79.4245","TLE_LINE2":"2 52844  53.2154 180.6055 0000841  79.4245 280.6842 15.08835079 55583","NORAD_CAT_ID":"52844","GP_ID":"234246774","EPOCH":"2023-06-18T17:50:18.794976","SITE":"AFETR","PERIOD":"95.438","TLE_LINE1":"1 52844U 22062Q   23169.74327309 -.00000208  00000-0  49856-5 0  9999","BSTAR":"0.00000498560000","DECAY_DATE":null,"CLASSIFICATION_TYPE":"U","REV_AT_EPOCH":"5558"},{"ELEMENT_SET_NO":"999","MEAN_MOTION_DDOT":"0.0000000000000","OBJECT_NAME":"STARLINK-4168","TIME_SYSTEM":"UTC","APOAPSIS":"540.369","SEMIMAJOR_AXIS":"6917.890","MEAN_ELEMENT_THEORY":"SGP4","LAUNCH_DATE":"2022-06-17","PERIAPSIS":"539.140","ECCENTRICITY":"0.00008880","MEAN_MOTION":"15.08836990","MEAN_MOTION_DOT":"-0.00000058","OBJECT_ID":"2022-062R","EPHEMERIS_TYPE":"0","FILE":"3936745","RCS_SIZE":"LARGE","CENTER_NAME":"EARTH","REF_FRAME":"TEME","COUNTRY_CODE":"US","OBJECT_TYPE":"PAYLOAD","MEAN_ANOMALY":"278.7559","RA_OF_ASC_NODE":"180.7227","INCLINATION":"53.2157","ARG_OF_PERICENTER":"81.3534","TLE_LINE2":"2 52845  53.2157 180.7227 0000888  81.3534 278.7559 15.08836990 55589","EPOCH":"2023-06-18T17:34:25.351968","GP_ID":"234247523","NORAD_CAT_ID":"52845","SITE":"AFETR","PERIOD":"95.438","BSTAR":"0.00001443800000","TLE_LINE1":"1 52845U 22062R   23169.73223787 -.00000058  00000-0  14438-4 0  9994","CLASSIFICATION_TYPE":"U","DECAY_DATE":null,"REV_AT_EPOCH":"5558"},{"EPHEMERIS_TYPE":"0","OBJECT_ID":"2022-062S","FILE":"3936745","RCS_SIZE":"LARGE","MEAN_MOTION":"15.08835250","MEAN_MOTION_DOT":"-0.00000318","INCLINATION":"53.2154","ARG_OF_PERICENTER":"83.7921","TLE_LINE2":"2 52846  53.2154 180.6607 0000993  83.7921 276.3184 15.08835250 55587","CENTER_NAME":"EARTH","REF_FRAME":"TEME","COUNTRY_CODE":"US","OBJECT_TYPE":"PAYLOAD","MEAN_ANOMALY":"276.3184","RA_OF_ASC_NODE":"180.6607","SITE":"AFETR","GP_ID":"234247267","EPOCH":"2023-06-18T17:35:47.606496","NORAD_CAT_ID":"52846","CLASSIFICATION_TYPE":"U","DECAY_DATE":null,"REV_AT_EPOCH":"5558","PERIOD":"95.438","BSTAR":"-0.00000188060000","TLE_LINE1":"1 52846U 22062S   23169.73318989 -.00000318  00000-0 -18806-5 0  9998","ELEMENT_SET_NO":"999","MEAN_MOTION_DDOT":"0.0000000000000","OBJECT_NAME":"STARLINK-4212","TIME_SYSTEM":"UTC","APOAPSIS":"540.447","SEMIMAJOR_AXIS":"6917.895","MEAN_ELEMENT_THEORY":"SGP4","LAUNCH_DATE":"2022-06-17","PERIAPSIS":"539.073","ECCENTRICITY":"0.00009930"}];
